CCSDS_OMM_VERS = 2.0
CREATION_DATE  = 
ORIGINATOR     = 

OBJECT_NAME    = SL-16 R/B
OBJECT_ID      = 1998-043G
CENTER_NAME    = EARTH
REF_FRAME      = TEME
TIME_SYSTEM    = UTC
MEAN_ELEMENT_THEORY = SGP/SGP4

EPOCH          = 2026-02-07T20:12:22.446144
MEAN_MOTION    = 14.26042565
ECCENTRICITY   = .00108928
INCLINATION    = 98.8206
RA_OF_ASC_NODE = 352.0035
ARG_OF_PERICENTER = 99.9713
MEAN_ANOMALY   = 260.2697

EPHEMERIS_TYPE = 0
CLASSIFICATION_TYPE = U
NORAD_CAT_ID   = 25400
ELEMENT_SET_NO = 999
REV_AT_EPOCH   = 43473
BSTAR          = .65473262E-4
MEAN_MOTION_DOT = .111E-5
MEAN_MOTION_DDOT = 0

CCSDS_OMM_VERS = 2.0
CREATION_DATE  = 
ORIGINATOR     = 

OBJECT_NAME    = SL-16 R/B
OBJECT_ID      = 1998-045B
CENTER_NAME    = EARTH
REF_FRAME      = TEME
TIME_SYSTEM    = UTC
MEAN_ELEMENT_THEORY = SGP/SGP4

EPOCH          = 2026-02-08T01:09:52.802784
MEAN_MOTION    = 14.16185156
ECCENTRICITY   = .0005342
INCLINATION    = 71.0083
RA_OF_ASC_NODE = 243.9085
ARG_OF_PERICENTER = 63.3484
MEAN_ANOMALY   = 296.8186

EPHEMERIS_TYPE = 0
CLASSIFICATION_TYPE = U
NORAD_CAT_ID   = 25407
ELEMENT_SET_NO = 999
REV_AT_EPOCH   = 42290
BSTAR          = -.23325E-5
MEAN_MOTION_DOT = -.52E-6
MEAN_MOTION_DDOT = 0

CCSDS_OMM_VERS = 2.0
CREATION_DATE  = 
ORIGINATOR     = 

OBJECT_NAME    = ISS (ZARYA)
OBJECT_ID      = 1998-067A
CENTER_NAME    = EARTH
REF_FRAME      = TEME
TIME_SYSTEM    = UTC
MEAN_ELEMENT_THEORY = SGP/SGP4

EPOCH          = 2026-02-07T21:21:41.491584
MEAN_MOTION    = 15.48470326
ECCENTRICITY   = .0011023
INCLINATION    = 51.6314
RA_OF_ASC_NODE = 219.6672
ARG_OF_PERICENTER = 75.1924
MEAN_ANOMALY   = 285.0284

EPHEMERIS_TYPE = 0
CLASSIFICATION_TYPE = U
NORAD_CAT_ID   = 25544
ELEMENT_SET_NO = 999
REV_AT_EPOCH   = 55171
BSTAR          = .211E-3
MEAN_MOTION_DOT = .10998E-3
MEAN_MOTION_DDOT = 0

CCSDS_OMM_VERS = 2.0
CREATION_DATE  = 
ORIGINATOR     = 

OBJECT_NAME    = CZ-4B R/B
OBJECT_ID      = 1999-025C
CENTER_NAME    = EARTH
REF_FRAME      = TEME
TIME_SYSTEM    = UTC
MEAN_ELEMENT_THEORY = SGP/SGP4

EPOCH          = 2026-02-08T02:31:48.173088
MEAN_MOTION    = 14.18259329
ECCENTRICITY   = .003811
INCLINATION    = 98.6685
RA_OF_ASC_NODE = 84.0797
ARG_OF_PERICENTER = 70.7188
MEAN_ANOMALY   = 349.4988

EPHEMERIS_TYPE = 0
CLASSIFICATION_TYPE = U
NORAD_CAT_ID   = 25732
ELEMENT_SET_NO = 999
REV_AT_EPOCH   = 38397
BSTAR          = .50234E-4
MEAN_MOTION_DOT = .61E-6
MEAN_MOTION_DDOT = 0

CCSDS_OMM_VERS = 2.0
CREATION_DATE  = 
ORIGINATOR     = 

OBJECT_NAME    = OKEAN-O
OBJECT_ID      = 1999-039A
CENTER_NAME    = EARTH
REF_FRAME      = TEME
TIME_SYSTEM    = UTC
MEAN_ELEMENT_THEORY = SGP/SGP4

EPOCH          = 2026-02-08T02:42:57.321216
MEAN_MOTION    = 14.80286486
ECCENTRICITY   = .0001878
INCLINATION    = 97.9508
RA_OF_ASC_NODE = 99.2955
ARG_OF_PERICENTER = 87.2412
MEAN_ANOMALY   = 272.9014

EPHEMERIS_TYPE = 0
CLASSIFICATION_TYPE = U
NORAD_CAT_ID   = 25860
ELEMENT_SET_NO = 999
REV_AT_EPOCH   = 43001
BSTAR          = .1228E-3
MEAN_MOTION_DOT = .883E-5
MEAN_MOTION_DDOT = 0

CCSDS_OMM_VERS = 2.0
CREATION_DATE  = 
ORIGINATOR     = 

OBJECT_NAME    = SL-16 R/B
OBJECT_ID      = 1999-039B
CENTER_NAME    = EARTH
REF_FRAME      = TEME
TIME_SYSTEM    = UTC
MEAN_ELEMENT_THEORY = SGP/SGP4

EPOCH          = 2026-02-08T02:54:13.504896
MEAN_MOTION    = 14.81689152
ECCENTRICITY   = .0014687
INCLINATION    = 98.0030
RA_OF_ASC_NODE = 98.2517
ARG_OF_PERICENTER = 358.9343
MEAN_ANOMALY   = 1.1836

EPHEMERIS_TYPE = 0
CLASSIFICATION_TYPE = U
NORAD_CAT_ID   = 25861
ELEMENT_SET_NO = 999
REV_AT_EPOCH   = 43248
BSTAR          = .96485E-4
MEAN_MOTION_DOT = .707E-5
MEAN_MOTION_DDOT = 0

CCSDS_OMM_VERS = 2.0
CREATION_DATE  = 
ORIGINATOR     = 

OBJECT_NAME    = DELTA 2 R/B
OBJECT_ID      = 1999-041E
CENTER_NAME    = EARTH
REF_FRAME      = TEME
TIME_SYSTEM    = UTC
MEAN_ELEMENT_THEORY = SGP/SGP4

EPOCH          = 2026-02-08T01:29:51.180288
MEAN_MOTION    = 14.11717124
ECCENTRICITY   = .0502317
INCLINATION    = 51.7648
RA_OF_ASC_NODE = 59.5921
ARG_OF_PERICENTER = 260.9004
MEAN_ANOMALY   = 93.4787

EPHEMERIS_TYPE = 0
CLASSIFICATION_TYPE = U
NORAD_CAT_ID   = 25876
ELEMENT_SET_NO = 999
REV_AT_EPOCH   = 35884
BSTAR          = .39362E-3
MEAN_MOTION_DOT = .2214E-4
MEAN_MOTION_DDOT = 0

CCSDS_OMM_VERS = 2.0
CREATION_DATE  = 
ORIGINATOR     = 

OBJECT_NAME    = HELIOS 1B
OBJECT_ID      = 1999-064A
CENTER_NAME    = EARTH
REF_FRAME      = TEME
TIME_SYSTEM    = UTC
MEAN_ELEMENT_THEORY = SGP/SGP4

EPOCH          = 2026-02-08T04:27:43.538976
MEAN_MOTION    = 14.87574671
ECCENTRICITY   = .0002049
INCLINATION    = 98.1722
RA_OF_ASC_NODE = 300.5586
ARG_OF_PERICENTER = 116.8489
MEAN_ANOMALY   = 243.2936

EPHEMERIS_TYPE = 0
CLASSIFICATION_TYPE = U
NORAD_CAT_ID   = 25977
ELEMENT_SET_NO = 999
REV_AT_EPOCH   = 68087
BSTAR          = .25175E-3
MEAN_MOTION_DOT = .2228E-4
MEAN_MOTION_DDOT = 0

CCSDS_OMM_VERS = 2.0
CREATION_DATE  = 
ORIGINATOR     = 

OBJECT_NAME    = TERRA
OBJECT_ID      = 1999-068A
CENTER_NAME    = EARTH
REF_FRAME      = TEME
TIME_SYSTEM    = UTC
MEAN_ELEMENT_THEORY = SGP/SGP4

EPOCH          = 2026-02-08T02:56:10.944096
MEAN_MOTION    = 14.60982094
ECCENTRICITY   = .0000936
INCLINATION    = 97.9657
RA_OF_ASC_NODE = 93.6771
ARG_OF_PERICENTER = 277.1033
MEAN_ANOMALY   = 110.4887

EPHEMERIS_TYPE = 0
CLASSIFICATION_TYPE = U
NORAD_CAT_ID   = 25994
ELEMENT_SET_NO = 999
REV_AT_EPOCH   = 39076
BSTAR          = .12119E-3
MEAN_MOTION_DOT = .55E-5
MEAN_MOTION_DDOT = 0

CCSDS_OMM_VERS = 2.0
CREATION_DATE  = 
ORIGINATOR     = 

OBJECT_NAME    = SL-16 R/B
OBJECT_ID      = 2000-006B
CENTER_NAME    = EARTH
REF_FRAME      = TEME
TIME_SYSTEM    = UTC
MEAN_ELEMENT_THEORY = SGP/SGP4

EPOCH          = 2026-02-07T21:57:28.532448
MEAN_MOTION    = 14.15820740
ECCENTRICITY   = .0018414
INCLINATION    = 71.0030
RA_OF_ASC_NODE = 160.4415
ARG_OF_PERICENTER = 232.1420
MEAN_ANOMALY   = 127.8038

EPHEMERIS_TYPE = 0
CLASSIFICATION_TYPE = U
NORAD_CAT_ID   = 26070
ELEMENT_SET_NO = 999
REV_AT_EPOCH   = 34434
BSTAR          = -.62432E-5
MEAN_MOTION_DOT = -.6E-6
MEAN_MOTION_DDOT = 0

CCSDS_OMM_VERS = 2.0
CREATION_DATE  = 
ORIGINATOR     = 

OBJECT_NAME    = TITAN 4B R/B
OBJECT_ID      = 2000-047B
CENTER_NAME    = EARTH
REF_FRAME      = TEME
TIME_SYSTEM    = UTC
MEAN_ELEMENT_THEORY = SGP/SGP4

EPOCH          = 2026-02-08T03:25:36.345792
MEAN_MOTION    = 15.09315864
ECCENTRICITY   = .0037053
INCLINATION    = 67.9891
RA_OF_ASC_NODE = 123.5799
ARG_OF_PERICENTER = 71.6931
MEAN_ANOMALY   = 288.8244

EPHEMERIS_TYPE = 0
CLASSIFICATION_TYPE = U
NORAD_CAT_ID   = 26474
ELEMENT_SET_NO = 999
REV_AT_EPOCH   = 38845
BSTAR          = .24863E-3
MEAN_MOTION_DOT = .3903E-4
MEAN_MOTION_DDOT = 0

CCSDS_OMM_VERS = 2.0
CREATION_DATE  = 
ORIGINATOR     = 

OBJECT_NAME    = ENVISAT
OBJECT_ID      = 2002-009A
CENTER_NAME    = EARTH
REF_FRAME      = TEME
TIME_SYSTEM    = UTC
MEAN_ELEMENT_THEORY = SGP/SGP4

EPOCH          = 2026-02-07T20:25:23.923776
MEAN_MOTION    = 14.39025666
ECCENTRICITY   = .00012897
INCLINATION    = 98.3679
RA_OF_ASC_NODE = 353.1686
ARG_OF_PERICENTER = 90.9560
MEAN_ANOMALY   = 322.0276

EPHEMERIS_TYPE = 0
CLASSIFICATION_TYPE = U
NORAD_CAT_ID   = 27386
ELEMENT_SET_NO = 999
REV_AT_EPOCH   = 25488
BSTAR          = .77048039E-4
MEAN_MOTION_DOT = .195E-5
MEAN_MOTION_DDOT = 0

