SL-16 R/B               
1 25400U 98043G   26038.84192646  .00000111  00000+0  65473-4 0  9995
2 25400  98.8206 352.0035 0010892  99.9713 260.2697 14.26042565434730
SL-16 R/B               
1 25407U 98045B   26039.04852781 -.00000052  00000+0 -23325-5 0  9997
2 25407  71.0083 243.9085 0005342  63.3484 296.8186 14.16185156422907
ISS (ZARYA)             
1 25544U 98067A   26038.89006356  .00010998  00000+0  21100-3 0  9999
2 25544  51.6314 219.6672 0011023  75.1924 285.0284 15.48470326551718
CZ-4B R/B               
1 25732U 99025C   26039.10541867  .00000061  00000+0  50234-4 0  9990
2 25732  98.6685  84.0797 0038110  70.7188 349.4988 14.18259329383971
OKEAN-O                 
1 25860U 99039A   26039.11316344  .00000883  00000+0  12280-3 0  9998
2 25860  97.9508  99.2955 0001878  87.2412 272.9014 14.80286486430018
SL-16 R/B               
1 25861U 99039B   26039.12098964  .00000707  00000+0  96485-4 0  9990
2 25861  98.0030  98.2517 0014687 358.9343   1.1836 14.81689152432482
DELTA 2 R/B             
1 25876U 99041E   26039.06239792  .00002214  00000+0  39362-3 0  9993
2 25876  51.7648  59.5921 0502317 260.9004  93.4787 14.11717124358846
HELIOS 1B               
1 25977U 99064A   26039.18592059  .00002228  00000+0  25175-3 0  9993
2 25977  98.1722 300.5586 0002049 116.8489 243.2936 14.87574671680878
TERRA                   
1 25994U 99068A   26039.12234889  .00000550  00000+0  12119-3 0  9994
2 25994  97.9657  93.6771 0000936 277.1033 110.4887 14.60982094390765
SL-16 R/B               
1 26070U 00006B   26038.91491357 -.00000060  00000+0 -62432-5 0  9998
2 26070  71.0030 160.4415 0018414 232.1420 127.8038 14.15820740344340
TITAN 4B R/B            
1 26474U 00047B   26039.14278178  .00003903  00000+0  24863-3 0  9992
2 26474  67.9891 123.5799 0037053  71.6931 288.8244 15.09315864388452
ENVISAT                 
1 27386U 02009A   26038.85097134  .00000195  00000+0  77048-4 0  9997
2 27386  98.3679 353.1686 0001289  90.9560 322.0276 14.39025666254882
